STARLINK-11181 [DTC]    
1 60059U 24113A   24192.16815244  .00132004  00000+0  80071-3 0  9998
2 60059  53.1658 307.5251 0001712  86.8369 273.2848 15.76653467  4541
STARLINK-11176 [DTC]    
1 60060U 24113B   24192.58334491  .00034538  00000+0  21457-3 0  9992
2 60060  53.1659 305.4006 0001304 100.4448 125.9861 15.76685617  4389
STARLINK-11167 [DTC]    
1 60061U 24113C   24192.16667824  .00057526  00000+0  35343-3 0  9997
2 60061  53.1664 307.4169 0001334  79.0435 328.6008 15.76707367  4447
STARLINK-11166 [DTC]    
1 60062U 24113D   24192.53384518  .00135926  00000+0  82574-3 0  9994
2 60062  53.1665 305.5347 0002141  68.0089 292.1160 15.76605019  4485
STARLINK-11165 [DTC]    
1 60063U 24113E   24192.14870818  .00157736  00000+0  95484-3 0  9992
2 60063  53.1663 307.3953 0001967  93.3710 266.7536 15.76612345  4321
STARLINK-11169 [DTC]    
1 60064U 24113F   24192.58334491  .00128784  00000+0  77890-3 0  9995
2 60064  53.1658 305.1744 0001562  67.3007 269.6863 15.76731211  4241
STARLINK-11102 [DTC]    
1 60065U 24113G   24192.58246642  .00108360  00000+0  65701-3 0  9992
2 60065  53.1667 305.1211 0001067  69.7597 290.3539 15.76751182  4386
STARLINK-11141 [DTC]    
1 60066U 24113H   24191.91668981 -.00054470  00000+0 -33045-3 0  9993
2 60066  53.1668 308.3799 0001019 128.6673  77.9051 15.76762286  4410
STARLINK-11153 [DTC]    
1 60067U 24113J   24192.58334491  .00137910  00000+0  83255-3 0  9991
2 60067  53.1672 305.0040 0001273  33.2921  26.7225 15.76741409  4507
STARLINK-11170 [DTC]    
1 60068U 24113K   24192.58334491 -.00053363  00000+0 -32391-3 0  9998
2 60068  53.1668 304.9463 0001837   5.9101  82.3767 15.76738649  4558
STARLINK-11171 [DTC]    
1 60069U 24113L   24192.43656311 -.00209248  00000+0 -11767-2 0  9999
2 60069  53.1668 305.6236 0003321 312.7301  47.3441 15.79040027  4487
STARLINK-11186 [DTC]    
1 60070U 24113M   24192.49762253  .00496105  00000+0  23144-2 0  9990
2 60070  53.1670 305.2932 0000634 288.8743  71.2211 15.81437364  4598
STARLINK-11184 [DTC]    
1 60071U 24113N   24192.49605238  .00091744  00000+0  45526-3 0  9999
2 60071  53.1672 305.2816 0000662 206.4118 153.6871 15.81259667  4433
STARLINK-32111          
1 60073U 24113Q   24192.26301944  .01779620  11894-4  71436-3 0  9997
2 60073  53.1598 303.5193 0014411 331.2510 111.8716 16.22562009  4180
STARLINK-32115          
1 60074U 24113R   24191.89007236  .01616863  11872-4  68646-3 0  9997
2 60074  53.1609 305.4224 0015643 327.2067 134.1931 16.21825112  4127
STARLINK-32117          
1 60076U 24113T   24192.32166916  .01312051  11825-4  63569-3 0  9998
2 60076  53.1595 303.2701 0015814 331.9985  60.3778 16.20175694  4198
STARLINK-32032          
1 60077U 24113U   24192.25001157  .00110973  00000+0  27531-2 0  9990
2 60077  53.1594 308.2721 0000676  56.5292 186.8036 15.39520119  4518
STARLINK-32110          
1 60078U 24113V   24192.60880611  .03199933  12145-4  59651-3 0  9993
2 60078  53.1529 301.3623 0014973 323.4744 125.4847 16.31039549  4249
KINEIS-1B               
1 60079U 24114A   24191.95141826  .00002286  00000+0  32632-3 0  9993
2 60079  98.0283 207.6473 0002049 186.4922 173.6262 14.77694891  2836
KINEIS-1C               
1 60081U 24114C   24191.82362772  .00002304  00000+0  33351-3 0  9997
2 60081  98.0283 207.5018 0000962  64.6039 295.5270 14.77098469  2800
KINEIS-1D               
1 60082U 24114D   24191.82256006  .00002171  00000+0  31401-3 0  9996
2 60082  98.0284 207.5036 0000461  52.7677 307.3575 14.77179208  2803
KINEIS-1E               
1 60083U 24114E   24191.82145465  .00002161  00000+0  31194-3 0  9991
2 60083  98.0283 207.5054 0001217 120.4207 239.7123 14.77266452  2800
KINEIS-1A               
1 60084U 24114F   24191.34346515  .00002109  00000+0  30247-3 0  9998
2 60084  98.0283 207.0384 0001306 208.6810 151.4328 14.77574422  2738
ELECTRON KICK STAGE R/B 
1 60085U 24114G   24192.48896021  .00006495  00000+0  50328-3 0  9991
2 60085  98.0270 208.8340 0091335 329.3523  30.2381 14.98499202  2940
ASTRA 1P                
1 60086U 24115A   24190.86943325 -.00000182  00000+0  00000+0 0  9999
2 60086  23.7148  61.0918 7708659 183.4186 163.1419  1.26732004    94
FALCON 9 R/B            
1 60087U 24115B   24191.36125002  .00000385  00000+0  14900-2 0  9991
2 60087  28.0250  60.7264 7977541 184.1985 157.6443  1.43354280   270
CATCH-1                 
1 60088U 24116A   24192.48497745  .00001942  00000+0  23608-3 0  9999
2 60088  28.9946 253.1346 0004746  59.7739 300.3323 14.79891092  2665
SVOM                    
1 60089U 24116B   24192.48804629  .00001876  00000+0  22900-3 0  9993
2 60089  28.9947 253.1597 0005794  47.3203 312.7876 14.79632152  2668
CZ-2C R/B               
1 60090U 24116C   24192.46693006  .00522157 -74942-5  78710-3 0  9991
2 60090  28.0432 236.5002 0235873 234.0347 123.8160 15.68338293  2758
STARLINK-31441          
1 60091U 24117A   24192.58334491 -.00687678  00000+0 -38153-2 0  9991
2 60091  53.1481 342.4132 0000946  79.3661 187.2371 15.80594339  3616
STARLINK-32044          
1 60092U 24117B   24192.58334491 -.00693116  00000+0 -38515-2 0  9998
2 60092  53.1479 342.4079 0000787  69.9590 199.3947 15.80575308  3666
STARLINK-31239          
1 60093U 24117C   24192.58334491 -.00698476  00000+0 -38882-2 0  9990
2 60093  53.1476 342.4008 0000786  67.3267 204.9311 15.80550412  3812
STARLINK-32007          
1 60094U 24117D   24192.25001157 -.00646648  00000+0 -35088-2 0  9994
2 60094  53.1483 344.0659 0000793  67.0075 110.0744 15.80971231  3614
STARLINK-32028          
1 60095U 24117E   24192.25001157 -.00648995  00000+0 -35228-2 0  9998
2 60095  53.1483 344.0606 0000993  72.4319 106.9370 15.80968072  3775
STARLINK-32016          
1 60096U 24117F   24192.58334491 -.00711720  00000+0 -39789-2 0  9998
2 60096  53.1480 342.3847 0000968  79.3649 201.0775 15.80490255  3796
STARLINK-32003          
1 60097U 24117G   24192.25001157 -.00660195  00000+0 -35976-2 0  9996
2 60097  53.1483 344.0482 0001155  67.8055 117.7603 15.80911067  3776
STARLINK-32026          
1 60098U 24117H   24192.58334491 -.00726730  00000+0 -40851-2 0  9999
2 60098  53.1481 342.3667 0000772  58.6057 230.3968 15.80411418  3619
STARLINK-31732          
1 60099U 24117J   24192.58334491 -.00723741  00000+0 -40626-2 0  9999
2 60099  53.1482 342.3728 0001048  77.0630 209.2757 15.80432135  3810
STARLINK-31996          
1 60100U 24117K   24192.25001157 -.00674085  00000+0 -36886-2 0  9995
2 60100  53.1483 344.0313 0001112  65.8184 127.9386 15.80856681  3667
STARLINK-31999          
1 60101U 24117L   24192.25001157 -.00677652  00000+0 -37122-2 0  9993
2 60101  53.1483 344.0260 0001198  79.3455 117.0158 15.80841296  3768
STARLINK-31954          
1 60102U 24117M   24192.25001157 -.00684837  00000+0 -37607-2 0  9995
2 60102  53.1485 344.0194 0000862  62.2688 137.2146 15.80809350  3567
STARLINK-32013          
1 60103U 24117N   24192.25001157 -.00686814  00000+0 -37745-2 0  9996
2 60103  53.1487 344.0149 0000776  73.1010 128.8268 15.80798109  3766
STARLINK-32009          
1 60104U 24117P   24192.58334491 -.00791048  00000+0 -38424-2 0  9994
2 60104  53.1473 341.9892 0000974  60.4890  51.0185 15.83674321  3888
STARLINK-32018          
1 60105U 24117Q   24192.25001157 -.00702426  00000+0 -38820-2 0  9991
2 60105  53.1484 343.9967 0000835  76.6252 134.0024 15.80716184  3833
STARLINK-32045          
1 60106U 24117R   24192.25001157 -.00697882  00000+0 -38495-2 0  9999
2 60106  53.1486 344.0035 0001080  73.5036 134.2257 15.80744336  3619
STARLINK-32035          
1 60107U 24117S   24192.58334491 -.00769543  00000+0 -43918-2 0  9996
2 60107  53.1485 342.3217 0001017  80.4749 230.9419 15.80190539  3816
STARLINK-32042          
1 60108U 24117T   24192.25001157 -.00717012  00000+0 -39837-2 0  9990
2 60108  53.1485 343.9793 0000910  80.7923 138.2726 15.80637965  3721
STARLINK-32040          
1 60109U 24117U   24192.58334491 -.00773571  00000+0 -44199-2 0  9996
2 60109  53.1486 342.3174 0001030  80.9165 232.9375 15.80175659  3812
STARLINK-32001          
1 60110U 24117V   24192.16667824 -.00764567  00000+0 -42483-2 0  9990
2 60110  53.1487 344.3909 0000952  64.9058  42.8049 15.80755845  3747
STARLINK-32015          
1 60111U 24117W   24192.58334491 -.00789821  00000+0 -45425-2 0  9997
2 60111  53.1483 342.2987 0001109  73.7547 248.6181 15.80074072  3719
STARLINK-32024          
1 60112U 24117X   24192.58334491 -.00793657  00000+0 -45705-2 0  9991
2 60112  53.1482 342.2933 0001029  71.3509 253.4753 15.80056356  3830
STARLINK-11201 [DTC]    
1 60113U 24118A   24192.46836146  .00095687  00000+0  58332-3 0  9991
2 60113  53.1686 337.5001 0000982  51.4990 308.6119 15.76680491  3477
STARLINK-11198 [DTC]    
1 60114U 24118B   24192.52969681  .00393993  00000+0  22939-2 0  9994
2 60114  53.1687 337.1692 0000411   4.7497 355.3528 15.76801381  3477
STARLINK-11112 [DTC]    
1 60115U 24118C   24192.46324838  .00725301  00000+0  40059-2 0  9992
2 60115  53.1683 337.4659 0002394 306.4413  53.6387 15.77085932  3683
STARLINK-11210 [DTC]    
1 60116U 24118D   24192.45836624 -.00006220  00000+0 -34051-4 0  9994
2 60116  53.1679 337.4335 0000411 127.3438 232.7620 15.76723816  3460
STARLINK-11203 [DTC]    
1 60117U 24118E   24192.50001157  .00070179  00000+0  43351-3 0  9990
2 60117  53.1675 337.1704 0001317  26.3544 236.9524 15.76504428  3630
STARLINK-11177 [DTC]    
1 60118U 24118F   24191.83334491  .00164789  00000+0  98897-3 0  9992
2 60118  53.1681 340.4335 0000828  11.0474  94.3013 15.76785514  3562
STARLINK-11127 [DTC]    
1 60119U 24118G   24192.50001157 -.00073392  00000+0 -44824-3 0  9990
2 60119  53.1680 337.0539 0000509 133.4659 186.4559 15.76732665  3477
STARLINK-11164 [DTC]    
1 60120U 24118H   24192.50001157  .00010632  00000+0  68796-4 0  9993
2 60120  53.1680 336.9968 0000622  26.1875 321.3538 15.76754382  3700
STARLINK-11119 [DTC]    
1 60121U 24118J   24192.50001157 -.01401492  00000+0 -82773-2 0  9994
2 60121  53.1671 336.8957 0000124 134.7788 261.6956 15.80088001  3639
